CS1                     
1 49261U 21088B   26068.75173904  .00015722  00000+0  51176-3 0  9998
2 49261  97.3882 132.1684 0014129  78.0335 282.2490 15.31848439245182
STARLINK-35879          
1 66960U 25288B   26068.27847035  .00033356  00000+0  12165-2 0  9996
2 66960  43.0038  25.8540 0001724 255.1565 104.9096 15.27572678 15223
